{"type":"FeatureCollection","features":[{"type":"Feature","properties":{"district":"alatau"},"geometry":{"type":"Polygon","coordinates":[[[76.80088,43.23464],[76.81349,43.23996],[76.83496,43.24519],[76.84558,43.24917],[76.8577,43.25228],[76.86392,43.25632],[76.86878,43.25799],[76.87037,43.25827],[76.88135,43.25776],[76.88663,43.25896],[76.88685,43.26091],[76.88572,43.26315],[76.88597,43.26982],[76.88687,43.2784],[76.88903,43.28806],[76.89614,43.30426],[76.9063,43.32354],[76.91897,43.34041],[76.92038,43.34437],[76.92068,43.34833],[76.90576,43.35188],[76.90425,43.34972],[76.8958,43.34524],[76.89281,43.34472],[76.892,43.34388],[76.89232,43.34321],[76.89151,43.34257],[76.89147,43.34099],[76.89068,43.34063],[76.88985,43.33932],[76.88979,43.33625],[76.88819,43.33489],[76.88657,43.33532],[76.88399,43.33311],[76.88119,43.32961],[76.88093,43.32834],[76.88031,43.32781],[76.87627,43.32989],[76.87684,43.33041],[76.87789,43.32956],[76.87841,43.32975],[76.87801,43.33114],[76.87707,43.33165],[76.87683,43.33259],[76.8771,43.33318],[76.87844,43.3333],[76.87962,43.33234],[76.87968,43.33336],[76.87843,43.33463],[76.87997,43.33487],[76.88025,43.33424],[76.88068,43.33488],[76.87934,43.33509],[76.8783,43.33583],[76.88063,43.33641],[76.88009,43.33743],[76.88022,43.3387],[76.88063,43.33882],[76.88023,43.33943],[76.87813,43.33981],[76.87847,43.34007],[76.87814,43.34098],[76.87931,43.34112],[76.87886,43.34195],[76.88001,43.34241],[76.87904,43.34241],[76.87912,43.34341],[76.87792,43.34402],[76.87652,43.34375],[76.87679,43.34438],[76.87499,43.34523],[76.87604,43.34586],[76.87529,43.34636],[76.87323,43.34658],[76.87313,43.34703],[76.87219,43.34724],[76.86579,43.3469],[76.86263,43.33642],[76.86017,43.33648],[76.85902,43.33357],[76.85714,43.33323],[76.85575,43.3343],[76.85193,43.33495],[76.85173,43.3354],[76.85324,43.34024],[76.84933,43.34201],[76.84914,43.34727],[76.84776,43.34748],[76.84737,43.35075],[76.84628,43.35258],[76.84426,43.35357],[76.84406,43.35437],[76.83562,43.35393],[76.83064,43.35281],[76.82705,43.35268],[76.81228,43.3547],[76.81161,43.35225],[76.8118,43.34916],[76.80728,43.34601],[76.8054,43.34542],[76.80589,43.34379],[76.80559,43.34132],[76.80488,43.33941],[76.80394,43.33882],[76.80086,43.32939],[76.7908,43.32945],[76.7868,43.32552],[76.78451,43.32525],[76.78478,43.3241],[76.78338,43.32297],[76.78204,43.31973],[76.77148,43.31816],[76.77239,43.3165],[76.76031,43.314],[76.75328,43.31745],[76.74224,43.31522],[76.74306,43.31233],[76.74836,43.30353],[76.74997,43.30335],[76.75457,43.30445],[76.75208,43.30353],[76.75302,43.29999],[76.75463,43.29688],[76.78117,43.28911],[76.78202,43.28869],[76.78162,43.28803],[76.78401,43.28725],[76.78264,43.28666],[76.78337,43.28496],[76.7845,43.28373],[76.78489,43.28388],[76.78535,43.28158],[76.79096,43.28401],[76.79085,43.28475],[76.78953,43.2852],[76.79059,43.28613],[76.79009,43.28655],[76.79154,43.28884],[76.79265,43.28788],[76.79618,43.28676],[76.79686,43.28556],[76.79703,43.28326],[76.79829,43.28216],[76.79982,43.27434],[76.79789,43.27216],[76.78762,43.26709],[76.78671,43.26603],[76.79204,43.26085],[76.78951,43.25935],[76.78848,43.25581],[76.7931,43.2527],[76.7934,43.25048],[76.79272,43.25002],[76.79153,43.25232],[76.79051,43.25212],[76.78922,43.25333],[76.789,43.25276],[76.78632,43.25254],[76.78605,43.25051],[76.78438,43.25008],[76.78373,43.25159],[76.78325,43.25147],[76.78298,43.25211],[76.77606,43.24958],[76.77918,43.24532],[76.77781,43.24487],[76.78615,43.23229],[76.7971,43.23331],[76.80088,43.23464]]]}},{"type":"Feature","properties":{"district":"almaly"},"geometry":{"type":"Polygon","coordinates":[[[76.91148,43.26635],[76.90174,43.26408],[76.88342,43.25773],[76.88022,43.2575],[76.87085,43.25802],[76.86534,43.25666],[76.86371,43.24933],[76.86592,43.24447],[76.8678,43.2434],[76.86816,43.24267],[76.8684,43.24002],[76.8678,43.23949],[76.86962,43.23815],[76.87013,43.23366],[76.87096,43.23331],[76.87436,43.23558],[76.87789,43.23705],[76.88494,43.23829],[76.94813,43.24254],[76.94482,43.27013],[76.92308,43.26886],[76.91494,43.26753],[76.91148,43.26635]]]}},{"type":"Feature","properties":{"district":"auezov"},"geometry":{"type":"Polygon","coordinates":[[[76.84232,43.1984],[76.84494,43.20037],[76.84673,43.19677],[76.85082,43.19761],[76.85097,43.19552],[76.85035,43.19452],[76.85083,43.19274],[76.8541,43.19426],[76.86435,43.1954],[76.87101,43.19757],[76.86854,43.20038],[76.86685,43.20394],[76.88403,43.20738],[76.88275,43.21125],[76.88468,43.21172],[76.88485,43.21216],[76.88508,43.21646],[76.88394,43.22006],[76.88222,43.22193],[76.88107,43.2243],[76.87806,43.22822],[76.87492,43.22961],[76.86995,43.234],[76.86966,43.23804],[76.86799,43.23937],[76.86848,43.24074],[76.86816,43.24267],[76.8666,43.2443],[76.86613,43.24426],[76.86371,43.24933],[76.8651,43.25668],[76.85784,43.25216],[76.84619,43.24934],[76.83736,43.24575],[76.81395,43.23992],[76.80942,43.2381],[76.81062,43.23679],[76.81448,43.22993],[76.81706,43.22781],[76.82151,43.22516],[76.82807,43.21432],[76.83073,43.21245],[76.83377,43.20939],[76.83483,43.20547],[76.83821,43.19928],[76.84069,43.19742],[76.84232,43.1984]]]}},{"type":"Feature","properties":{"district":"bostandyk"},"geometry":{"type":"Polygon","coordinates":[[[76.93787,43.24169],[76.88311,43.2379],[76.87798,43.23692],[76.87378,43.2351],[76.87106,43.23323],[76.87124,43.23284],[76.87492,43.22961],[76.87782,43.22839],[76.88394,43.22006],[76.88508,43.21646],[76.88482,43.21173],[76.88288,43.21129],[76.88412,43.2074],[76.86695,43.20414],[76.86849,43.20046],[76.87101,43.19762],[76.86435,43.1954],[76.86365,43.19416],[76.86676,43.18591],[76.87256,43.17702],[76.87211,43.17647],[76.86718,43.17662],[76.86625,43.17624],[76.86647,43.17589],[76.87153,43.17174],[76.87963,43.16652],[76.87894,43.16592],[76.87982,43.16459],[76.88402,43.16029],[76.88231,43.15871],[76.88197,43.15774],[76.88339,43.15726],[76.88423,43.15618],[76.88544,43.15598],[76.89147,43.15105],[76.89278,43.14948],[76.89323,43.14671],[76.89545,43.14734],[76.89603,43.14682],[76.89998,43.1425],[76.90182,43.13845],[76.89898,43.13638],[76.89758,43.13293],[76.90105,43.13393],[76.90308,43.13302],[76.90478,43.12881],[76.90238,43.12863],[76.89515,43.12609],[76.89475,43.12139],[76.89659,43.11937],[76.89886,43.11361],[76.89942,43.10846],[76.89885,43.1021],[76.9007,43.08395],[76.90219,43.08223],[76.90535,43.08015],[76.909,43.07978],[76.9308,43.08514],[76.9455,43.08427],[76.9566,43.08206],[76.96235,43.07781],[76.96658,43.07368],[76.96761,43.06926],[76.9667,43.06508],[76.96364,43.06046],[76.96372,43.05923],[76.96208,43.05735],[76.95779,43.05403],[76.95717,43.05302],[76.94724,43.04803],[76.9432,43.04884],[76.94227,43.0468],[76.93949,43.04625],[76.93678,43.04433],[76.93689,43.0409],[76.93892,43.0396],[76.94154,43.0387],[76.94348,43.03377],[76.94482,43.03379],[76.94961,43.03954],[76.95787,43.04342],[76.9635,43.04685],[76.96652,43.04962],[76.97989,43.04459],[76.98621,43.0433],[76.98775,43.04361],[76.98888,43.04443],[76.99197,43.04478],[76.99311,43.04559],[76.99485,43.04944],[76.99486,43.05105],[76.99353,43.05228],[76.99094,43.05332],[76.99184,43.05613],[76.99113,43.0574],[76.98908,43.05891],[76.98806,43.05917],[76.98679,43.05872],[76.98673,43.06072],[76.98745,43.06275],[76.99141,43.06609],[76.99182,43.07144],[76.98947,43.07504],[76.98404,43.07747],[76.97995,43.08301],[76.97555,43.08542],[76.97286,43.08594],[76.97021,43.08755],[76.96668,43.0878],[76.96321,43.08986],[76.95832,43.09483],[76.95586,43.09524],[76.94486,43.10438],[76.93815,43.10375],[76.93687,43.10316],[76.93281,43.10348],[76.93045,43.10275],[76.92765,43.1033],[76.92745,43.10602],[76.92702,43.10647],[76.92575,43.10572],[76.92335,43.10638],[76.92015,43.10884],[76.91888,43.11066],[76.91965,43.11111],[76.91947,43.1121],[76.91774,43.11518],[76.91767,43.11628],[76.92386,43.11661],[76.93106,43.11509],[76.93118,43.11538],[76.92402,43.11696],[76.91718,43.11651],[76.91445,43.11911],[76.91142,43.12385],[76.91127,43.12579],[76.91642,43.12222],[76.94731,43.12746],[76.95962,43.12767],[76.95333,43.13816],[76.95301,43.14026],[76.95038,43.14445],[76.96657,43.15788],[76.96726,43.15571],[76.96795,43.15547],[76.96793,43.15812],[76.96867,43.15906],[76.96671,43.16242],[76.96704,43.16345],[76.9654,43.16706],[76.96531,43.1688],[76.96346,43.17079],[76.96419,43.17101],[76.96365,43.172],[76.96356,43.17445],[76.96243,43.17531],[76.95837,43.17688],[76.9595,43.17722],[76.95853,43.17924],[76.96016,43.18099],[76.95616,43.18226],[76.95478,43.18402],[76.95429,43.18374],[76.9527,43.18722],[76.95058,43.18898],[76.95,43.19066],[76.94716,43.19237],[76.9442,43.1954],[76.94294,43.19753],[76.94181,43.19781],[76.93892,43.20002],[76.93411,43.20146],[76.93334,43.20233],[76.93272,43.20424],[76.93168,43.20426],[76.93102,43.20734],[76.93302,43.20811],[76.93654,43.20678],[76.94099,43.20611],[76.94112,43.20645],[76.93882,43.20865],[76.93478,43.21022],[76.93695,43.21342],[76.9295,43.2152],[76.92637,43.21542],[76.92517,43.21501],[76.92476,43.2156],[76.94355,43.22774],[76.95024,43.22807],[76.94837,43.24221],[76.93787,43.24169]]]}},{"type":"Feature","properties":{"district":"zhetysu"},"geometry":{"type":"Polygon","coordinates":[[[76.96668,43.27217],[76.9671,43.27405],[76.96571,43.27623],[76.96566,43.2784],[76.96728,43.28029],[76.96825,43.28298],[76.96809,43.28445],[76.96945,43.28652],[76.97302,43.28877],[76.97347,43.29086],[76.9729,43.2912],[76.97289,43.29189],[76.97352,43.29313],[76.96411,43.29334],[76.95941,43.29281],[76.95078,43.29469],[76.94349,43.29311],[76.93657,43.2929],[76.93534,43.29249],[76.93041,43.29985],[76.93005,43.30173],[76.93083,43.31015],[76.93029,43.31501],[76.93228,43.32977],[76.93293,43.33177],[76.93243,43.34379],[76.93293,43.34595],[76.93724,43.35133],[76.94041,43.35927],[76.9428,43.35872],[76.94437,43.35915],[76.94496,43.36014],[76.94856,43.36071],[76.95008,43.36159],[76.95391,43.36632],[76.95297,43.36811],[76.95401,43.37113],[76.95502,43.37207],[76.95791,43.37335],[76.96144,43.377],[76.96345,43.37815],[76.96364,43.37898],[76.96408,43.37893],[76.9637,43.37962],[76.96307,43.37938],[76.96152,43.38012],[76.9606,43.37928],[76.96017,43.37943],[76.96126,43.38055],[76.95772,43.38172],[76.95594,43.37889],[76.95219,43.37978],[76.95002,43.37941],[76.94445,43.38116],[76.94128,43.38124],[76.93804,43.3785],[76.93727,43.37899],[76.93787,43.38011],[76.93658,43.3803],[76.93459,43.37661],[76.93095,43.37714],[76.93156,43.37949],[76.9292,43.37982],[76.92713,43.37466],[76.92992,43.37421],[76.92986,43.37372],[76.92735,43.37077],[76.9246,43.36936],[76.92477,43.36783],[76.92433,43.36691],[76.92296,43.36676],[76.92262,43.36437],[76.92129,43.3633],[76.91903,43.36251],[76.91917,43.36205],[76.91845,43.36151],[76.9183,43.36067],[76.91714,43.35986],[76.91683,43.35766],[76.91509,43.35736],[76.91311,43.35626],[76.90959,43.3521],[76.90892,43.352],[76.90897,43.35102],[76.92048,43.34813],[76.92033,43.34322],[76.91891,43.33989],[76.90646,43.32351],[76.89612,43.30388],[76.8891,43.288],[76.88744,43.28118],[76.88675,43.27659],[76.88677,43.27264],[76.88594,43.26859],[76.88569,43.2633],[76.88685,43.26091],[76.88689,43.25982],[76.88704,43.25948],[76.89001,43.26032],[76.89815,43.26327],[76.91897,43.2683],[76.96668,43.27217]]]}},{"type":"Feature","properties":{"district":"medeu"},"geometry":{"type":"MultiPolygon","coordinates":[[[[77.14264,43.36244],[77.14071,43.36379],[77.13544,43.36367],[77.134,43.36449],[77.13308,43.36624],[77.13169,43.3672],[77.12734,43.36453],[77.13161,43.36306],[77.13125,43.36125],[77.13246,43.36076],[77.13308,43.35977],[77.13348,43.35717],[77.13777,43.35167],[77.14055,43.34958],[77.14166,43.34777],[77.14228,43.34442],[77.14293,43.34332],[77.14242,43.34296],[77.14297,43.3426],[77.14236,43.34226],[77.14071,43.34444],[77.13946,43.34411],[77.1383,43.34215],[77.13905,43.34142],[77.13924,43.34005],[77.13673,43.33996],[77.13702,43.33932],[77.14371,43.33546],[77.14624,43.3331],[77.14946,43.33455],[77.15216,43.33789],[77.15212,43.33865],[77.15608,43.33856],[77.16057,43.33984],[77.1627,43.34097],[77.16406,43.34242],[77.16578,43.34557],[77.16675,43.34484],[77.1663,43.34623],[77.16636,43.34742],[77.16673,43.34754],[77.16652,43.34882],[77.16544,43.3515],[77.16434,43.35372],[77.16267,43.35492],[77.16122,43.35736],[77.1607,43.35742],[77.16057,43.35896],[77.1574,43.35913],[77.15331,43.35791],[77.14965,43.36079],[77.14648,43.36163],[77.14585,43.3614],[77.14327,43.36358],[77.14233,43.36519],[77.14235,43.36603],[77.14121,43.36616],[77.14338,43.3627],[77.14264,43.36244]]],[[[76.99989,43.29672],[76.9995,43.29622],[76.99972,43.29507],[76.99895,43.29441],[76.99647,43.29587],[76.99088,43.29704],[76.98007,43.29529],[76.97631,43.29327],[76.97352,43.29313],[76.97289,43.29189],[76.9729,43.2912],[76.97347,43.29086],[76.97305,43.28878],[76.97029,43.28735],[76.96819,43.28474],[76.96828,43.2831],[76.96737,43.28049],[76.9656,43.27825],[76.96571,43.27623],[76.9671,43.27405],[76.96668,43.27217],[76.9448,43.27041],[76.95021,43.22832],[76.94311,43.22753],[76.92488,43.21548],[76.9251,43.21505],[76.92637,43.21542],[76.92992,43.21514],[76.93695,43.21342],[76.93478,43.21022],[76.93882,43.20865],[76.94109,43.20628],[76.94076,43.2059],[76.93654,43.20678],[76.9329,43.2081],[76.93114,43.20703],[76.93168,43.20426],[76.93259,43.20446],[76.93411,43.20146],[76.93892,43.20002],[76.94164,43.19787],[76.94294,43.19753],[76.9442,43.1954],[76.94716,43.19237],[76.95,43.19066],[76.95058,43.18898],[76.95246,43.1873],[76.95429,43.18374],[76.95478,43.18402],[76.95552,43.18272],[76.95655,43.18208],[76.95757,43.18212],[76.96006,43.18112],[76.95853,43.17924],[76.9595,43.17722],[76.95837,43.17688],[76.96356,43.1745],[76.96365,43.172],[76.96419,43.17101],[76.96346,43.17079],[76.96531,43.1688],[76.9654,43.16706],[76.96704,43.16345],[76.96671,43.16242],[76.96867,43.15906],[76.96793,43.15812],[76.96795,43.15547],[76.96726,43.15571],[76.96657,43.15788],[76.95038,43.14445],[76.95301,43.14026],[76.95333,43.13816],[76.95962,43.12767],[76.94731,43.12746],[76.91642,43.12222],[76.91152,43.12578],[76.91142,43.12385],[76.91445,43.11911],[76.91718,43.11651],[76.92402,43.11696],[76.93118,43.11538],[76.93106,43.11509],[76.92386,43.11661],[76.91767,43.11628],[76.91774,43.11518],[76.91974,43.11126],[76.91888,43.11066],[76.92015,43.10884],[76.92311,43.1065],[76.92575,43.10572],[76.92702,43.10647],[76.92745,43.10602],[76.92765,43.1033],[76.93045,43.10275],[76.93281,43.10348],[76.93687,43.10316],[76.93815,43.10375],[76.94486,43.10438],[76.95586,43.09524],[76.95832,43.09483],[76.96321,43.08986],[76.96668,43.0878],[76.97021,43.08755],[76.97286,43.08594],[76.97555,43.08542],[76.97995,43.08301],[76.98404,43.07747],[76.98947,43.07504],[76.99182,43.07144],[76.99141,43.06609],[76.98745,43.06275],[76.98673,43.06072],[76.98679,43.05872],[76.98806,43.05917],[76.98908,43.05891],[76.99167,43.05681],[76.99168,43.05475],[76.99094,43.05332],[76.99353,43.05228],[76.99486,43.05105],[76.99485,43.04944],[76.9938,43.04734],[77.02991,43.04314],[77.03243,43.03816],[77.05694,43.03284],[77.07715,43.0338],[77.08963,43.07094],[77.08003,43.10114],[77.08009,43.11539],[77.08152,43.11526],[77.08729,43.11649],[77.08848,43.11609],[77.09016,43.11241],[77.09179,43.11212],[77.09821,43.11521],[77.10024,43.11415],[77.10184,43.11242],[77.10975,43.11285],[77.10945,43.11053],[77.11372,43.10994],[77.1136,43.11302],[77.12125,43.11743],[77.1203,43.11766],[77.11323,43.11386],[77.11256,43.1159],[77.10738,43.11766],[77.0928,43.12755],[77.09134,43.12691],[77.08857,43.12713],[77.07893,43.13204],[77.07828,43.1346],[77.07724,43.13535],[77.07587,43.13786],[77.07139,43.13886],[77.06863,43.14077],[77.06893,43.14109],[77.06716,43.14239],[77.06639,43.1438],[77.06294,43.14491],[77.06686,43.15138],[77.0645,43.15356],[77.06513,43.15348],[77.06527,43.15389],[77.06445,43.15402],[77.06179,43.15713],[77.06023,43.16005],[77.0632,43.16042],[77.06675,43.16177],[77.06851,43.16301],[77.06884,43.16404],[77.07022,43.16484],[77.07394,43.1631],[77.07684,43.16269],[77.07937,43.16123],[77.08063,43.15954],[77.08283,43.15887],[77.08542,43.15879],[77.0883,43.16083],[77.09013,43.16077],[77.0932,43.16047],[77.09864,43.15796],[77.10068,43.15795],[77.10671,43.1544],[77.10937,43.15101],[77.11707,43.15164],[77.11681,43.15364],[77.11925,43.15709],[77.12098,43.158],[77.12222,43.16684],[77.12828,43.16898],[77.13489,43.16654],[77.14701,43.17816],[77.14549,43.18786],[77.14596,43.18965],[77.14508,43.19097],[77.14423,43.19103],[77.13822,43.19809],[77.12438,43.201],[77.11965,43.20407],[77.11842,43.203],[77.11428,43.20151],[77.11338,43.19926],[77.11387,43.1897],[77.11441,43.18932],[77.11482,43.18387],[77.11398,43.18159],[77.11302,43.1804],[77.11161,43.18013],[77.10876,43.17822],[77.10662,43.17764],[77.10544,43.17566],[77.10281,43.17519],[77.09861,43.17605],[77.09685,43.18398],[77.07176,43.19452],[77.06881,43.19693],[77.05912,43.21677],[77.05651,43.22017],[77.0575,43.22473],[77.05359,43.22396],[77.05325,43.22509],[77.05223,43.22588],[77.05232,43.22649],[77.05063,43.22627],[77.04964,43.22681],[77.04955,43.22774],[77.04754,43.23018],[77.04654,43.23001],[77.04501,43.23117],[77.0421,43.23562],[77.03944,43.23407],[77.03887,43.23489],[77.03966,43.23724],[77.03559,43.24105],[77.03532,43.24155],[77.03634,43.24283],[77.03585,43.24404],[77.03382,43.24402],[77.03307,43.24597],[77.03236,43.24618],[77.03217,43.24858],[77.03035,43.24766],[77.02874,43.24958],[77.02679,43.24912],[77.02564,43.24968],[77.01678,43.25961],[77.01567,43.26003],[77.01412,43.25957],[77.01241,43.26047],[77.01032,43.2607],[77.00909,43.26184],[77.00564,43.26204],[77.00465,43.26269],[77.00654,43.26468],[77.0064,43.26656],[77.01358,43.26487],[77.01495,43.26641],[77.01358,43.26983],[77.01433,43.27323],[77.01352,43.27622],[77.0139,43.27722],[77.01212,43.28047],[77.01458,43.28189],[77.01383,43.28353],[77.01159,43.28293],[77.01,43.29043],[77.01943,43.29308],[77.01822,43.29744],[77.02886,43.30453],[77.04039,43.31027],[77.02564,43.31976],[77.0145,43.30697],[76.99989,43.29672]]]]}},{"type":"Feature","properties":{"district":"nauryzbay"},"geometry":{"type":"Polygon","coordinates":[[[76.84274,43.19875],[76.84069,43.19742],[76.83821,43.19928],[76.83475,43.20563],[76.83377,43.20939],[76.8281,43.21429],[76.82151,43.22516],[76.81706,43.22781],[76.81448,43.22993],[76.80955,43.23797],[76.79757,43.23321],[76.76988,43.23002],[76.77013,43.22854],[76.77166,43.22642],[76.77255,43.22418],[76.77258,43.2215],[76.77881,43.2224],[76.78039,43.21842],[76.77776,43.21783],[76.77213,43.21787],[76.77209,43.21477],[76.77568,43.20776],[76.77865,43.19978],[76.78,43.19789],[76.78099,43.19871],[76.78003,43.20042],[76.78081,43.20134],[76.78218,43.20165],[76.7827,43.19986],[76.78439,43.1982],[76.78431,43.19647],[76.78477,43.19617],[76.78685,43.19721],[76.78922,43.19732],[76.78976,43.19649],[76.79138,43.19005],[76.79063,43.18876],[76.79134,43.18632],[76.79043,43.18595],[76.79179,43.18213],[76.79169,43.17841],[76.79279,43.1752],[76.78988,43.1749],[76.79249,43.16971],[76.79328,43.16716],[76.78946,43.16726],[76.78969,43.16687],[76.78907,43.16651],[76.7886,43.16671],[76.78591,43.16523],[76.7856,43.16432],[76.78888,43.16293],[76.78659,43.16289],[76.78196,43.16177],[76.7755,43.16169],[76.77522,43.1596],[76.77737,43.15816],[76.7872,43.156],[76.78979,43.15744],[76.79193,43.15713],[76.7935,43.15752],[76.79464,43.15705],[76.79735,43.15412],[76.79837,43.15435],[76.79873,43.15341],[76.79859,43.1489],[76.7995,43.14642],[76.80543,43.14595],[76.80798,43.14715],[76.80842,43.14657],[76.80877,43.14071],[76.80787,43.13659],[76.80807,43.13574],[76.82311,43.13639],[76.83565,43.1339],[76.83349,43.1317],[76.83315,43.12392],[76.83605,43.12208],[76.83795,43.12338],[76.83965,43.12369],[76.83943,43.1248],[76.84121,43.12424],[76.84268,43.12483],[76.84328,43.12108],[76.8481,43.12257],[76.84973,43.12203],[76.85026,43.12226],[76.85132,43.12329],[76.85163,43.12896],[76.85355,43.13036],[76.85291,43.13204],[76.8529,43.13471],[76.85488,43.13441],[76.85519,43.13249],[76.85588,43.13172],[76.85781,43.13329],[76.85922,43.13299],[76.85902,43.13155],[76.86047,43.13202],[76.86141,43.13077],[76.86287,43.13043],[76.86374,43.13097],[76.86444,43.13329],[76.86462,43.13271],[76.86549,43.13267],[76.86532,43.13097],[76.86618,43.13212],[76.86698,43.1317],[76.87056,43.12666],[76.87438,43.12603],[76.87559,43.12712],[76.88998,43.12729],[76.89515,43.12609],[76.90238,43.12863],[76.90478,43.12881],[76.90308,43.13302],[76.90105,43.13393],[76.89758,43.13293],[76.89898,43.13638],[76.90182,43.13845],[76.89998,43.1425],[76.89545,43.14734],[76.89323,43.14671],[76.89278,43.14948],[76.89147,43.15105],[76.88544,43.15598],[76.88197,43.15774],[76.88322,43.1598],[76.88402,43.16029],[76.87977,43.16466],[76.87898,43.1658],[76.87963,43.16652],[76.87153,43.17174],[76.86624,43.17613],[76.86718,43.17662],[76.87198,43.17644],[76.87255,43.17688],[76.8666,43.18625],[76.86365,43.19416],[76.86435,43.1954],[76.8541,43.19426],[76.85095,43.19261],[76.85035,43.19473],[76.85104,43.19614],[76.85082,43.19761],[76.84673,43.19677],[76.84499,43.2003],[76.84274,43.19875]]]}},{"type":"Feature","properties":{"district":"turksib"},"geometry":{"type":"Polygon","coordinates":[[[77.0281,43.3229],[77.04137,43.33787],[77.03186,43.34676],[77.03386,43.34725],[77.03423,43.34799],[77.03607,43.3489],[77.03708,43.34896],[77.03861,43.34616],[77.04736,43.34868],[77.04472,43.35315],[77.05724,43.35942],[77.059,43.35915],[77.06552,43.36224],[77.07476,43.36943],[77.0849,43.37441],[77.08546,43.37381],[77.08727,43.37472],[77.08702,43.37545],[77.10265,43.38287],[77.10238,43.38411],[77.1019,43.38446],[77.0998,43.38346],[77.10048,43.38266],[77.08668,43.37581],[77.08552,43.37612],[77.08404,43.37537],[77.08455,43.37478],[77.07758,43.37135],[77.07602,43.37294],[77.07303,43.37151],[77.06916,43.37307],[77.06799,43.37434],[77.04503,43.36292],[77.02228,43.36239],[77.01154,43.35977],[77.01133,43.36118],[77.01206,43.36108],[77.01262,43.36342],[77.01209,43.36898],[77.01278,43.36894],[77.01162,43.37027],[77.01359,43.37499],[77.01202,43.37538],[77.01217,43.37648],[77.01125,43.37796],[77.01143,43.37953],[77.01201,43.38109],[77.01533,43.38436],[77.01629,43.38613],[77.00873,43.38717],[77.00837,43.38749],[77.00858,43.3883],[77.00565,43.38845],[77.00543,43.3887],[77.00687,43.3902],[77.00809,43.39055],[77.00753,43.39097],[77.0088,43.39138],[77.00734,43.39139],[77.00738,43.39178],[77.00467,43.39273],[77.00484,43.39323],[77.00415,43.3923],[77.00262,43.39322],[77.00354,43.39426],[77.00302,43.39443],[77.00259,43.39393],[77.00175,43.39434],[77.00203,43.39483],[77.00115,43.39511],[77.00273,43.3991],[76.99944,43.3977],[76.99552,43.39953],[76.9923,43.39919],[76.98824,43.40183],[76.98734,43.40368],[76.98687,43.4031],[76.98601,43.40377],[76.98625,43.40293],[76.9854,43.40275],[76.98536,43.40213],[76.98401,43.40184],[76.98253,43.40073],[76.98386,43.40056],[76.98267,43.40032],[76.9833,43.39975],[76.9831,43.39911],[76.982,43.39906],[76.98198,43.39857],[76.98121,43.39841],[76.98193,43.39731],[76.98115,43.3961],[76.98041,43.39583],[76.981,43.3954],[76.9799,43.39384],[76.98062,43.39234],[76.98,43.39014],[76.97864,43.39001],[76.97904,43.38905],[76.97874,43.38877],[76.97731,43.38933],[76.97712,43.38854],[76.9753,43.3872],[76.97465,43.38777],[76.97183,43.38704],[76.97187,43.38629],[76.97124,43.3859],[76.97164,43.38525],[76.97093,43.38502],[76.97122,43.38481],[76.97031,43.38396],[76.9685,43.38371],[76.96792,43.38429],[76.96748,43.38415],[76.96774,43.38311],[76.96667,43.38333],[76.96726,43.3826],[76.96615,43.38229],[76.96699,43.38172],[76.96546,43.38152],[76.96535,43.3811],[76.96594,43.38074],[76.96571,43.3801],[76.9639,43.3806],[76.96446,43.37999],[76.96359,43.37999],[76.9641,43.37922],[76.96349,43.37868],[76.96366,43.37828],[76.96144,43.377],[76.9581,43.37347],[76.95401,43.37113],[76.95302,43.3689],[76.9534,43.36677],[76.95381,43.36652],[76.9536,43.36586],[76.95187,43.36349],[76.9502,43.36228],[76.95008,43.36159],[76.94856,43.36071],[76.94496,43.36014],[76.94437,43.35915],[76.9428,43.35872],[76.94041,43.35927],[76.93724,43.35133],[76.93297,43.34604],[76.93242,43.34344],[76.93293,43.33177],[76.93228,43.32977],[76.93026,43.3147],[76.93083,43.31015],[76.93004,43.30456],[76.93018,43.3003],[76.934,43.29489],[76.93588,43.29327],[76.94426,43.29337],[76.95142,43.29482],[76.95947,43.29296],[76.96363,43.29346],[76.97509,43.29318],[76.97971,43.29532],[76.99,43.2971],[76.998,43.29611],[77.01441,43.30703],[77.0281,43.3229]]]}}]}
